[{"OBJECT_NAME":"STARLINK-3619","OBJECT_ID":"2022-017V","EPOCH":"2026-03-09T22:28:26.086656","MEAN_MOTION":15.08831006,"ECCENTRICITY":0.00011926,"INCLINATION":53.2194,"RA_OF_ASC_NODE":348.0139,"ARG_OF_PERICENTER":93.0181,"MEAN_ANOMALY":267.0947,"EPHEMERIS_TYPE":0,"CLASSIFICATION_TYPE":"U","NORAD_CAT_ID":51787,"ELEMENT_SET_NO":999,"REV_AT_EPOCH":22231,"BSTAR":-7.553327e-6,"MEAN_MOTION_DOT":-4.08e-6,"MEAN_MOTION_DDOT":0},{"OBJECT_NAME":"MUSAT-2","OBJECT_ID":"2024-043B","EPOCH":"2026-03-09T22:04:01.255008","MEAN_MOTION":15.07177436,"ECCENTRICITY":0.0006495,"INCLINATION":97.8438,"RA_OF_ASC_NODE":205.4399,"ARG_OF_PERICENTER":314.3478,"MEAN_ANOMALY":45.7216,"EPHEMERIS_TYPE":0,"CLASSIFICATION_TYPE":"U","NORAD_CAT_ID":59099,"ELEMENT_SET_NO":999,"REV_AT_EPOCH":11013,"BSTAR":0.00067214198,"MEAN_MOTION_DOT":0.00010059,"MEAN_MOTION_DDOT":0}]
